ONEWEB-0043             
1 45149U 20008U   23304.84766559  .00000542  00000+0  15170-2 0  9991
2 45149  87.8917 226.7843 0002380  72.8733 287.2655 13.10375641183323
ONEWEB-0044             
1 45150U 20008V   23304.49509237 -.00000223  00000+0 -67410-3 0  9995
2 45150  87.8912 226.8526 0002182  73.0289 287.1077 13.10371675182798
ONEWEB-0045             
1 45151U 20008W   23304.50176846  .00000472  00000+0  12965-2 0  9992
2 45151  87.8996 211.7122 0001718  73.7035 286.4281 13.11416613185409
ONEWEB-0047             
1 45152U 20008X   23304.48699314  .00000234  00000+0  63440-3 0  9991
2 45152  87.8910 226.8550 0001948  73.6703 286.4639 13.10375234182512
ONEWEB-0048             
1 45153U 20008Y   23304.55846750  .00000409  00000+0  11341-2 0  9994
2 45153  87.8914 226.8515 0001926  73.9462 286.1878 13.10372335182138
ONEWEB-0049             
1 45154U 20008Z   23304.56010952  .00000529  00000+0  14789-2 0  9995
2 45154  87.8917 226.8221 0001977  77.9605 282.1744 13.10372577182355
ONEWEB-0051             
1 45155U 20008AA  23304.50012820  .00000482  00000+0  13235-2 0  9999
2 45155  87.9001 211.7471 0001579  71.6452 288.4847 13.11421565186080
ONEWEB-0052             
1 45156U 20008AB  23304.55683937  .00000456  00000+0  12690-2 0  9993
2 45156  87.8918 226.8069 0002519  86.1908 273.9508 13.10371410182260
